{
"type": "FeatureCollection",
"name": "ph_land",
"crs": { "type": "name", "properties": { "name": "urn:ogc:def:crs:OGC:1.3:CRS84" } },
"features": [
{ "type": "Feature", "properties": { }, "geometry": { "type": "MultiPolygon", "coordinates": [ [ [ [ 125.773797864366941, 7.009892711500624 ], [ 125.540291393018194, 6.756578965974064 ], [ 125.820793070600331, 6.109300576298459 ], [ 125.828058300118741, 6.01086608128033 ], [ 125.516141122618919, 5.490511364239341 ], [ 125.45902054173267, 5.444648487095933 ], [ 125.386991833628315, 5.431305718662464 ], [ 125.330163210060576, 5.446474955539858 ], [ 124.153439170342338, 6.026827128393736 ], [ 124.100260225658559, 6.070728793979066 ], [ 123.789302667895996, 6.871921781277854 ], [ 123.805407898960226, 6.953896150712839 ], [ 124.041977715573779, 7.323990661505483 ], [ 123.639829902457322, 7.624223628689019 ], [ 123.415633705976475, 7.328294975857588 ], [ 123.370709566736693, 7.288763590014737 ], [ 123.298887582116151, 7.268902075738901 ], [ 122.870202997907938, 7.303216535517953 ], [ 122.175804125713938, 6.779653363515317 ], [ 122.121964788146414, 6.753924076815068 ], [ 122.0333387897726, 6.758785308292841 ], [ 121.9722392769621, 6.801076965648253 ], [ 121.789369353899019, 7.118265295489818 ], [ 121.770159241876357, 7.200445023692866 ], [ 121.783945214265088, 7.255433577109474 ], [ 122.201816209494154, 8.136354009624901 ], [ 122.251209875750334, 8.171932147958694 ], [ 122.868560719800541, 8.447542437014258 ], [ 123.415274131317133, 8.824372940069969 ], [ 123.502841273226522, 8.842242344355755 ], [ 123.585028988104838, 8.807135372472816 ], [ 123.89252887344793, 8.418259087841461 ], [ 124.48466670561551, 8.631522077894864 ], [ 124.629483198117839, 9.025525786427192 ], [ 124.701831476292199, 9.096639305918702 ], [ 124.758973561463449, 9.110303430252388 ], [ 125.309911504030921, 9.131028557944935 ], [ 125.26322163171919, 9.778497521746816 ], [ 125.281732463364108, 9.834494232001051 ], [ 125.320399631258667, 9.879026608700444 ], [ 125.417318432482418, 9.910244607371 ], [ 125.48786687011912, 9.889803320322098 ], [ 126.298463387049452, 9.415542862963388 ], [ 126.3419488686894, 9.37708618634046 ], [ 126.367576200844113, 9.324998347673738 ], [ 126.62678559122709, 7.773051749904165 ], [ 126.687412351934697, 7.191245419213835 ], [ 126.337348455087891, 6.221963525070191 ], [ 126.272722289743172, 6.144943302136943 ], [ 126.217756009835966, 6.125769225345385 ], [ 126.159629266292612, 6.128965916242231 ], [ 126.107097076022683, 6.154051891070594 ], [ 126.068071807517427, 6.197248714631335 ], [ 125.773797864366941, 7.009892711500624 ] ] ], [ [ [ 120.525836852490627, 14.251298202392029 ], [ 120.450375179879018, 14.298522374949139 ], [ 119.928555952674444, 14.922164422860247 ], [ 119.772315520641939, 15.385995881404744 ], [ 119.734052019680263, 16.372845435299336 ], [ 119.749369067486597, 16.430304043859422 ], [ 119.785809094973956, 16.477295830885279 ], [ 119.837645181509146, 16.506435559502382 ], [ 119.896730759320661, 16.513143625232654 ], [ 119.966645394984937, 16.488733144384963 ], [ 120.156038295368461, 16.334935239868386 ], [ 120.241942247671645, 17.622849013911281 ], [ 120.57471454210139, 18.555981119865315 ], [ 120.624010415374045, 18.623812108586407 ], [ 120.702011009730143, 18.654586016896676 ], [ 121.337760002848682, 18.653159709433616 ], [ 121.913892386770016, 18.394850950767658 ], [ 122.172992669564792, 18.60998046426268 ], [ 122.227643233932326, 18.627821646117535 ], [ 122.298753203342272, 18.619369853591014 ], [ 122.347699266950912, 18.589215669587968 ], [ 122.381707800134336, 18.542864708148311 ], [ 122.486858612429728, 18.230309794137987 ], [ 122.476592591936821, 18.170093560626121 ], [ 122.337675880236887, 17.816050111461987 ], [ 122.65107921232628, 17.158002742744813 ], [ 122.664592560347046, 17.075692313176734 ], [ 122.377053516240849, 16.179142135062005 ], [ 122.325819536177789, 16.131690894513788 ], [ 121.796692974613705, 15.83421954085046 ], [ 121.65912971472018, 15.131033296551971 ], [ 121.848585908348483, 14.456691759323451 ], [ 122.254572051261619, 14.37231249858152 ], [ 122.662510386636498, 14.481445534563802 ], [ 122.734552484622498, 14.482803522637239 ], [ 124.047148579502675, 13.896670554341174 ], [ 124.088730581802054, 13.839885297327434 ], [ 124.099834440463155, 13.770384702710002 ], [ 124.01886794093852, 13.303450739350556 ], [ 124.281464110740956, 13.109173620641789 ], [ 124.321823582973039, 13.049967278520805 ], [ 124.330114379640662, 12.978794666956979 ], [ 124.269730179855301, 12.707708969401155 ], [ 125.230557898196892, 12.685681446905731 ], [ 125.28940175971664, 12.67217797753238 ], [ 125.33815553692402, 12.636568808324368 ], [ 125.643770856351367, 12.213262907534173 ], [ 125.928931755038406, 11.082719258627831 ], [ 125.931908776541135, 11.024572341494446 ], [ 125.912520722533984, 10.969672159427711 ], [ 125.848716593303408, 10.911058234338164 ], [ 125.763142843350423, 10.897504915915768 ], [ 125.175541031281611, 11.096554541512841 ], [ 125.180991191781288, 11.00893376813328 ], [ 125.42173279837759, 10.399737092465848 ], [ 125.419535803313337, 10.310645122683786 ], [ 125.389382720727809, 10.258867734834345 ], [ 125.341369489865428, 10.223023126535793 ], [ 124.865739607050955, 9.998979954334374 ], [ 124.780094718663449, 9.98626038721871 ], [ 124.701688297199269, 10.022992762144664 ], [ 124.656644784851466, 10.096938122309389 ], [ 124.617461793960516, 10.710396880976095 ], [ 124.419612695087011, 10.745221042005406 ], [ 124.338373846218857, 10.800907963281082 ], [ 124.225009304075215, 11.196002579164263 ], [ 124.131691755456245, 10.263837023154331 ], [ 124.112838629735791, 10.204646155246737 ], [ 123.745119372446169, 9.858344086688046 ], [ 123.422077241725717, 9.218664991013485 ], [ 123.075065246629109, 8.894790927765806 ], [ 122.98935951291611, 8.87233054603665 ], [ 122.918354248627949, 8.893777990566889 ], [ 122.268060526966011, 9.613574908637283 ], [ 122.231414886766856, 9.693208320726926 ], [ 122.235120149085944, 9.752011893873227 ], [ 122.261187817797861, 9.804851896064289 ], [ 122.467221753345541, 10.072535815336192 ], [ 122.696869560317253, 10.329452757884672 ], [ 122.752631117696055, 10.643167018519568 ], [ 122.70183125825001, 10.605702697432966 ], [ 122.053316176066431, 10.299846942758439 ], [ 121.953573268579078, 10.299258614700225 ], [ 121.883811404172519, 10.349437161121337 ], [ 121.853039889387432, 10.429672553089262 ], [ 121.817440431997852, 10.910384926841557 ], [ 121.885039226055341, 11.402295518991227 ], [ 121.737037411688959, 11.859588246499634 ], [ 121.735903282937073, 11.918233273816071 ], [ 121.757345809261096, 11.972829459963235 ], [ 121.837644298867971, 12.034558672348608 ], [ 121.924907397831092, 12.035940314675164 ], [ 122.520058450351087, 11.732271668500461 ], [ 123.119869369328583, 11.733659781467686 ], [ 123.19262603774844, 11.715025550414854 ], [ 123.247229580679146, 11.663457920394634 ], [ 123.269990847762557, 11.591884936055255 ], [ 123.249281989004217, 11.144385290517798 ], [ 123.207177109869193, 11.060395717459365 ], [ 123.542651723479835, 11.084086635673199 ], [ 123.625124915263441, 11.021584836576078 ], [ 123.646836558046815, 10.916994150365474 ], [ 123.991007487570485, 11.354968993568555 ], [ 124.089687216346192, 11.382264505697583 ], [ 124.146731312805628, 11.366019120774691 ], [ 124.189702855366193, 11.332520847505883 ], [ 124.152645936543394, 11.501477173405084 ], [ 124.173129135189598, 11.571249783069071 ], [ 124.2118997850055, 11.614902109870549 ], [ 124.308044553901652, 11.645269287376834 ], [ 124.734989951463305, 11.588108765158671 ], [ 124.72978962279484, 11.739300066704175 ], [ 124.179474765114392, 12.426774900749349 ], [ 124.098658141042421, 12.388188222330131 ], [ 124.010632040855938, 12.402365764434062 ], [ 123.218098499608843, 12.900599819625549 ], [ 123.17532692052103, 12.941254453221873 ], [ 122.9288388253036, 13.291848250658356 ], [ 122.762963333212056, 13.067059541099361 ], [ 122.694191802037636, 13.03758487790955 ], [ 122.61973819483481, 13.044997006127225 ], [ 122.568605518167601, 13.076554356971188 ], [ 121.985765545272727, 13.624554492187553 ], [ 121.307099489931318, 13.514120666614286 ], [ 121.644927673060181, 13.16278777647919 ], [ 121.671421695336505, 13.111494511055433 ], [ 121.676580823747543, 13.053993939856106 ], [ 121.394409624387137, 12.134721854942844 ], [ 121.357771713035916, 12.089956533985044 ], [ 121.306918646754156, 12.062384153631175 ], [ 121.234996276863129, 12.05804586727025 ], [ 121.181197695854323, 12.079305763555851 ], [ 120.709278739447612, 12.621006578629393 ], [ 120.179689046869001, 13.423556470272134 ], [ 120.174358785619646, 13.483023432144956 ], [ 120.192647249809824, 13.539858837632506 ], [ 120.231656952345389, 13.585058111381729 ], [ 120.285207488547783, 13.611460219475706 ], [ 120.853202017175022, 13.593846475556902 ], [ 120.554641088440391, 13.727177561028052 ], [ 120.494656814782161, 13.790207816941635 ], [ 120.478680757661621, 13.861265247474908 ], [ 120.525836852490627, 14.251298202392029 ] ] ], [ [ [ 118.86273798750392, 10.461568878236701 ], [ 119.386287087595036, 11.452267566839632 ], [ 119.42716055148864, 11.49371442617784 ], [ 119.480734898803419, 11.516480003470271 ], [ 119.538941875217844, 11.517135820787123 ], [ 119.593015556132968, 11.495583112559315 ], [ 119.634812487982046, 11.455067699595045 ], [ 119.658038085895285, 11.40169117103393 ], [ 119.836218424437689, 10.586314584116577 ], [ 119.83380697576635, 10.512741280845747 ], [ 119.806564427040172, 10.460284980691801 ], [ 119.138455830694937, 9.899237126045907 ], [ 118.603403822154931, 9.203537371620341 ], [ 117.249193269538452, 8.237549212315294 ], [ 117.165775431272891, 8.217740880648792 ], [ 117.08513430742488, 8.246859858804651 ], [ 117.046239147704327, 8.289352986419875 ], [ 117.02622778054014, 8.343371913921555 ], [ 117.043709938169187, 8.441343573018131 ], [ 117.549305170369678, 9.162989786446749 ], [ 118.280952594015957, 9.791256367467934 ], [ 118.86273798750392, 10.461568878236701 ] ] ], [ [ [ 117.748636297749684, 6.529049033023001 ], [ 117.790311439383515, 6.452415842430741 ], [ 117.829008069634028, 6.091141550246602 ], [ 118.402412520379443, 5.848417579138562 ], [ 119.232793240377006, 5.548939381044873 ], [ 119.294371710847415, 5.507087787385323 ], [ 119.324205269024247, 5.45527321389507 ], [ 119.331430045137807, 5.395921770529506 ], [ 119.258274910450709, 4.989298852352405 ], [ 119.226720687840597, 4.921061099239753 ], [ 119.136828205492606, 4.868422476780614 ], [ 118.648800504049944, 4.83156772194915 ], [ 118.760263670970048, 4.494951714575226 ], [ 118.724477734585065, 4.402662694403895 ], [ 118.638992909334434, 4.35276037843555 ], [ 116.0, 4.35 ], [ 115.904841007375452, 4.384048431995589 ], [ 115.867711810347743, 4.4292904894761 ], [ 115.85, 4.5 ], [ 115.855789810090243, 5.985099119248956 ], [ 115.889566359168256, 6.045337241222624 ], [ 116.105469226063974, 6.241204117379306 ], [ 116.607719330132454, 7.018158145194075 ], [ 116.652805305811427, 7.056198391405136 ], [ 116.709072696999087, 7.073912403476294 ], [ 117.128409346735808, 7.078047948341724 ], [ 117.185929226595931, 7.067085099383625 ], [ 117.234869207903856, 7.034935466944362 ], [ 117.748636297749684, 6.529049033023001 ] ] ] ] } }
]
}
